NORAD_CAT_ID,OBJECT_NAME,OBJECT_TYPE,EPOCH,MEAN_MOTION,ECCENTRICITY,INCLINATION,RA_OF_ASC_NODE,ARG_OF_PERICENTER,MEAN_ANOMALY,BSTAR,MEAN_MOTION_DOT,MEAN_MOTION_DDOT,TLE_LINE0,TLE_LINE1,TLE_LINE2,SEMIMAJOR_AXIS,PERIOD,APOGEE,PERIGEE,DECAYED
53860.0,STARLINK-4799,PAYLOAD,2022-10-27 14:00:01,15.73230038,0.0002005999999999,53.2155,68.0314,41.0079,177.02599999999995,-0.00018177,-0.00026087,0.0,0 STARLINK-4799,1 53860U 22114AU  22300.58335648 -.00026087  00000-0 -18177-3 0  9993,2 53860  53.2155  68.0314 0002006  41.0079 177.0260 15.73230038  1305,6727.81,91.531,351.024,348.325,0.0
53860.0,STARLINK-4799,PAYLOAD,2022-10-27 22:00:00,15.73207932,0.0002019,53.215,66.3821,35.5756,271.3556,0.00031209,0.00043423,0.0,0 STARLINK-4799,1 53860U 22114AU  22300.91667824  .00043423  00000-0  31209-3 0  9996,2 53860  53.2150  66.3821 0002019  35.5756 271.3556 15.73207932  1301,6727.873000000001,91.533,351.096,348.379,0.0
53860.0,STARLINK-4799,PAYLOAD,2022-10-28 08:00:01,15.73248148,0.000179,53.2155,64.3184,38.6357,109.5617,-0.00032009,-0.00045396,0.0,0 STARLINK-4799,1 53860U 22114AU  22301.33335648 -.00045396  00000-0 -32009-3 0  9991,2 53860  53.2155  64.3184 0001790  38.6357 109.5617 15.73248148  6761,6727.7580000000025,91.53,350.827,348.4190000000001,0.0
53860.0,STARLINK-4799,PAYLOAD,2022-10-28 14:00:01,15.73189363,0.0001973,53.2154,63.083,34.3112,90.6053,0.0001113,0.00015021,0.0,0 STARLINK-4799,1 53860U 22114AU  22301.58335648  .00015021  00000-0  11130-3 0  9990,2 53860  53.2154  63.0830 0001973  34.3112  90.6053 15.73189363  1301,6727.926,91.534,351.11800000000005,348.463,0.0
53860.0,STARLINK-4799,PAYLOAD,2022-10-28 22:00:01,15.732397199999998,0.0001985,53.2154,61.4337,27.4011,186.4281,-0.00080635,-0.00112488,0.0,0 STARLINK-4799,1 53860U 22114AU  22301.91668981 -.00112488  00000-0 -80635-3 0  9999,2 53860  53.2154  61.4337 0001985  27.4011 186.4281 15.73239720  1309,6727.781999999997,91.531,350.982,348.311,0.0
53860.0,STARLINK-4799,PAYLOAD,2022-10-29 12:00:00,15.73244921,0.0001921999999999,53.2156,58.5467,21.6157,257.7614,-6.534800000000001e-06,-1.5399999999999998e-05,0.0,0 STARLINK-4799,1 53860U 22114AU  22302.50001157 -.00001540  00000-0 -65348-5 0  9993,2 53860  53.2156  58.5467 0001922  21.6157 257.7614 15.73244921  1301,6727.767,91.531,350.925,348.339,0.0
53860.0,STARLINK-4799,PAYLOAD,2022-10-29 22:00:01,15.73264183,0.0002117,53.2149,56.4849,19.4381,101.2195,-0.00035323,-0.00050042,0.0,0 STARLINK-4799,1 53860U 22114AU  22302.91668981 -.00050042  00000-0 -35323-3 0  9991,2 53860  53.2149  56.4849 0002117  19.4381 101.2195 15.73264183  1304,6727.712,91.529,351.001,348.153,0.0
53860.0,STARLINK-4799,PAYLOAD,2022-10-30 00:00:00,15.73284508,0.0002029,53.215,56.072,20.5913,212.2412,-0.00076211,-0.00106628,0.0,0 STARLINK-4799,1 53860U 22114AU  22303.00001157 -.00106628  00000-0 -76211-3 0  9991,2 53860  53.2150  56.0720 0002029  20.5913 212.2412 15.73284508  7029,6727.654,91.528,350.884,348.154,0.0
53860.0,STARLINK-4799,PAYLOAD,2022-10-30 14:00:01,15.73188164,0.0002171,53.2151,53.1861,22.1188,276.4046,-0.00064609,-0.00090294,0.0,0 STARLINK-4799,1 53860U 22114AU  22303.58334491 -.00090294  00000-0 -64609-3 0  9993,2 53860  53.2151  53.1861 0002171  22.1188 276.4046 15.73188164  1305,6727.929,91.534,351.255,348.333,0.0
53860.0,STARLINK-4799,PAYLOAD,2022-10-30 22:00:01,15.73133966,0.0002248,53.2152,51.5363,18.6053,8.861,-0.00012744,-0.00018419,0.0,0 STARLINK-4799,1 53860U 22114AU  22303.91668981 -.00018419  00000-0 -12744-3 0  9996,2 53860  53.2152  51.5363 0002248  18.6053   8.8610 15.73133966  1305,6728.083000000001,91.537,351.461,348.436,0.0
53860.0,STARLINK-4799,PAYLOAD,2022-10-31 14:00:01,15.73191535,0.0002468,53.2152,48.2379,22.698,182.3894,0.00012293,0.00016661,0.0,0 STARLINK-4799,1 53860U 22114AU  22304.58334491  .00016661  00000-0  12293-3 0  9990,2 53860  53.2152  48.2379 0002468  22.6980 182.3894 15.73191535  1301,6727.919,91.534,351.445,348.124,0.0
53860.0,STARLINK-4799,PAYLOAD,2022-10-31 22:00:01,15.73229518,0.000246,53.2146,46.5876,20.3902,273.6902,-0.0004147,-0.00058502,0.0,0 STARLINK-4799,1 53860U 22114AU  22304.91668981 -.00058502  00000-0 -41470-3 0  9992,2 53860  53.2146  46.5876 0002460  20.3902 273.6902 15.73229518  1305,6727.811,91.531,351.331,348.021,0.0
53860.0,STARLINK-4799,PAYLOAD,2022-11-01 00:00:02,15.73220037,0.0002379999999999,53.2148,46.1747,20.9944,25.3241,-0.00035151,-0.00049712,0.0,0 STARLINK-4799,1 53860U 22114AU  22305.00002315 -.00049712  00000-0 -35151-3 0  9998,2 53860  53.2148  46.1747 0002380  20.9944  25.3241 15.73220037  7337,6727.8380000000025,91.532,351.30400000000014,348.102,0.0
53860.0,STARLINK-4799,PAYLOAD,2022-11-01 14:00:01,15.7319796,0.0002533,53.215,43.2891,19.901,92.0007,0.00017085,0.00023423,0.0,0 STARLINK-4799,1 53860U 22114AU  22305.58334491  .00023423  00000-0  17085-3 0  9999,2 53860  53.2150  43.2891 0002533  19.9010  92.0007 15.73197960  7430,6727.901,91.533,351.47,348.06199999999984,0.0
53860.0,STARLINK-4799,PAYLOAD,2022-11-01 22:00:00,15.73257855,0.0002563999999999,53.2152,41.6387,17.3426,183.4889,-0.00081123,-0.00113255,0.0,0 STARLINK-4799,1 53860U 22114AU  22305.91667824 -.00113255  00000-0 -81123-3 0  9994,2 53860  53.2152  41.6387 0002564  17.3426 183.4889 15.73257855  1304,6727.73,91.53,351.32,347.87,0.0
53860.0,STARLINK-4799,PAYLOAD,2022-11-02 06:00:00,15.73185122,0.000258,53.2155,39.9878,23.673,266.1098,-0.00019136,-0.00027378,0.0,0 STARLINK-4799,1 53860U 22114AU  22306.25001157 -.00027378  00000-0 -19136-3 0  9998,2 53860  53.2155  39.9878 0002580  23.6730 266.1098 15.73185122  7537,6727.938,91.534,351.538,348.06699999999995,0.0
53860.0,STARLINK-4799,PAYLOAD,2022-11-02 14:00:01,15.7313566,0.0002961,53.2159,38.3413,26.2688,352.4171,0.00054998,0.00077074,0.0,0 STARLINK-4799,1 53860U 22114AU  22306.58334491  .00077074  00000-0  54998-3 0  9995,2 53860  53.2159  38.3413 0002961  26.2688 352.4171 15.73135660  1305,6728.079000000002,91.537,351.936,347.951,0.0
53860.0,STARLINK-4799,PAYLOAD,2022-11-02 22:00:00,15.73210192,0.0002915,53.2148,36.6898,26.7241,80.8282,0.00031621,0.00044016,0.0,0 STARLINK-4799,1 53860U 22114AU  22306.91667824  .00044016  00000-0  31621-3 0  9999,2 53860  53.2148  36.6898 0002915  26.7241  80.8282 15.73210192  7642,6727.866,91.533,351.69199999999995,347.77,0.0
53860.0,STARLINK-4799,PAYLOAD,2022-11-03 14:00:01,15.73288648,0.0002874,53.2154,33.3915,19.7651,265.7647,-0.00048373,-0.00068236,0.0,0 STARLINK-4799,1 53860U 22114AU  22307.58334491 -.00068236  00000-0 -48373-3 0  9998,2 53860  53.2154  33.3915 0002874  19.7651 265.7647 15.73288648  1301,6727.642,91.528,351.441,347.574,0.0
53860.0,STARLINK-4799,PAYLOAD,2022-11-03 22:00:00,15.73260531,0.0002787,53.2156,31.7407,13.6087,0.9257,-0.00044859,-0.00063284,0.0,0 STARLINK-4799,1 53860U 22114AU  22307.91667824 -.00063284  00000-0 -44859-3 0  9997,2 53860  53.2156  31.7407 0002787  13.6087   0.9257 15.73260531  7796,6727.723000000001,91.53,351.463,347.713,0.0
53860.0,STARLINK-4799,PAYLOAD,2022-11-04 14:00:01,15.73265605,0.0002961,53.2167,28.4442,20.5526,171.8878,-0.0022877,-0.00311098,0.0,0 STARLINK-4799,1 53860U 22114AU  22308.58334491 -.00311098  00000-0 -22877-2 0  9996,2 53860  53.2167  28.4442 0002961  20.5526 171.8878 15.73265605  1304,6727.708000000001,91.529,351.565,347.581,0.0
53860.0,STARLINK-4799,PAYLOAD,2022-11-04 22:00:01,15.73215324,0.0002898,53.2153,26.7916,11.318,270.1812,-0.00070662,-0.00098727,0.0,0 STARLINK-4799,1 53860U 22114AU  22308.91668981 -.00098727  00000-0 -70662-3 0  9994,2 53860  53.2153  26.7916 0002898  11.3180 270.1812 15.73215324  7950,6727.851,91.532,351.666,347.767,0.0
53860.0,STARLINK-4799,PAYLOAD,2022-11-05 14:00:01,15.73238052,0.0003134,53.2157,23.4944,12.2002,87.0306,-0.00051606,-0.00072566,0.0,0 STARLINK-4799,1 53860U 22114AU  22309.58335648 -.00072566  00000-0 -51606-3 0  9999,2 53860  53.2157  23.4944 0003134  12.2002  87.0306 15.73238052  1305,6727.7869999999975,91.531,351.76,347.543,0.0
53860.0,STARLINK-4799,PAYLOAD,2022-11-05 22:00:01,15.73189084,0.0003061,53.216,21.8434,9.7646,178.4126,-0.00068518,-0.00095681,0.0,0 STARLINK-4799,1 53860U 22114AU  22309.91668981 -.00095681  00000-0 -68518-3 0  9998,2 53860  53.2160  21.8434 0003061   9.7646 178.4126 15.73189084  1304,6727.926,91.534,351.851,347.732,0.0
53860.0,STARLINK-4799,PAYLOAD,2022-11-06 06:00:00,15.73252649,0.0003026,53.2162,20.1936,14.8015,262.145,-0.00051957,-0.00073095,0.0,0 STARLINK-4799,1 53860U 22114AU  22310.25001157 -.00073095  00000-0 -51957-3 0  9997,2 53860  53.2162  20.1936 0003026  14.8015 262.1450 15.73252649  8163,6727.745,91.53,351.646,347.574,0.0
53860.0,STARLINK-4799,PAYLOAD,2022-11-06 14:00:01,15.73136818,0.0003345,53.2159,18.5461,14.4463,351.4626,0.0005645,0.00079154,0.0,0 STARLINK-4799,1 53860U 22114AU  22310.58334491  .00079154  00000-0  56450-3 0  9996,2 53860  53.2159  18.5461 0003345  14.4463 351.4626 15.73136818  1305,6728.075,91.537,352.191,347.69,0.0
53860.0,STARLINK-4799,PAYLOAD,2022-11-07 00:00:00,15.7318672,0.0003139,53.2155,16.4823,12.4257,194.6133,-9.5142e-05,-0.00013949,0.0,0 STARLINK-4799,1 53860U 22114AU  22311.00001157 -.00013949  00000-0 -95142-4 0  9998,2 53860  53.2155  16.4823 0003139  12.4257 194.6133 15.73186720  8281,6727.933000000001,91.534,351.91,347.686,0.0
53860.0,STARLINK-4799,PAYLOAD,2022-11-07 22:00:00,15.732365,0.0003362,53.2159,11.9468,16.3139,345.2069,-1.825e-05,-3.189e-05,0.0,0 STARLINK-4799,1 53860U 22114AU  22311.91667824 -.00003189  00000-0 -18250-4 0  9997,2 53860  53.2159  11.9468 0003362  16.3139 345.2069 15.73236500  1300,6727.791,91.531,351.918,347.394,0.0
53860.0,STARLINK-4799,PAYLOAD,2022-11-08 00:00:02,15.73259537,0.0003332,53.2158,11.5339,16.344,97.51,0.00023296,0.00032289,0.0,0 STARLINK-4799,1 53860U 22114AU  22312.00002315  .00032289  00000-0  23296-3 0  9992,2 53860  53.2158  11.5339 0003332  16.3440  97.5100 15.73259537  8444,6727.725,91.53,351.832,347.349,0.0
